LANDSAT 9               
1 49260U 21088A   24101.94371236  .00000502  00000+0  12139-3 0  9998
2 49260  98.1913 172.6883 0001349  83.6539 276.4813 14.57124118134902
